GLOBALSTAR M004         
1 25163U 98008B   25207.97134566 -.00000047  00000+0  31313-3 0  9994
2 25163  52.0012 292.7823 0002990  29.9010 141.1549 12.63399103266717
GLOBALSTAR M003         
1 25165U 98008D   25207.79003428 -.00000173  00000+0 -89510-3 0  9991
2 25165  51.9988  58.8413 0008568  16.7669  64.8143 12.12069659238024
GLOBALSTAR M014         
1 25306U 98023A   25207.90676407 -.00000068  00000+0  18137-3 0  9990
2 25306  51.9846  63.0030 0001802  66.4130 307.0616 11.65481346195809
GLOBALSTAR M015         
1 25308U 98023C   25207.97331622 -.00000075  00000+0 -27554-4 0  9999
2 25308  51.9783 217.0896 0012449 147.0933 225.0367 11.48860426198657
GLOBALSTAR M008         
1 25309U 98023D   25207.92693804 -.00000075  00000+0  16297-3 0  9998
2 25309  51.9972  82.8388 0001926 267.8845 105.0712 12.36070943242761
